IRIDIUM 33              
1 24946U 97051C   24319.24844404  .00000835  00000+0  28853-3 0  9990
2 24946  86.3900 233.2043 0009976  65.0051 295.2180 14.34646291421923
IRIDIUM 33 DEB          
1 33773U 97051L   24319.29969175  .00002568  00000+0  77872-3 0  9996
2 33773  86.4052 227.0024 0012615  24.6750 335.5051 14.41863713826754
IRIDIUM 33 DEB          
1 33775U 97051N   24319.32470750  .00002514  00000+0  79874-3 0  9993
2 33775  86.3699 217.1412 0015950  30.2070 108.4586 14.39548821824762
IRIDIUM 33 DEB          
1 33776U 97051P   24319.31656052  .00002657  00000+0  88717-3 0  9998
2 33776  86.4055 245.7088 0016823  53.6467  61.2044 14.37095301824296
IRIDIUM 33 DEB          
1 33777U 97051Q   24319.62249371  .00007174  00000+0  17998-2 0  9996
2 33777  86.3855 205.5106 0009667 134.4240 225.7758 14.51211367828239
IRIDIUM 33 DEB          
1 33850U 97051T   24319.63588786  .00003000  00000+0  94060-3 0  9995
2 33850  86.3473 198.8977 0013194  33.5103  25.5443 14.40281969824904
IRIDIUM 33 DEB          
1 33853U 97051W   24319.52527774  .00004151  00000+0  24414-2 0  9999
2 33853  86.0033 161.8592 0220465   1.0301  19.0585 13.96436126798520
IRIDIUM 33 DEB          
1 33859U 97051AC  24319.58346369  .00034113  00000+0  48981-2 0  9996
2 33859  86.3358 185.4342 0033510 314.8829  44.9669 14.75920961826702
IRIDIUM 33 DEB          
1 33860U 97051AD  24319.20170000  .00010003  00000+0  21137-2 0  9990
2 33860  86.3919 200.2149 0007826 240.6072 248.2753 14.59239892829664
IRIDIUM 33 DEB          
1 33862U 97051AF  24319.22843329  .00011905  00000+0  24057-2 0  9991
2 33862  86.4159 209.8675 0057336 339.8269 140.5860 14.60248764830599
IRIDIUM 33 DEB          
1 33864U 97051AH  24319.45729296  .00074489  00000+0  76065-2 0  9996
2 33864  86.2661 104.6206 0008583  20.0393  40.0868 14.90214164832130
IRIDIUM 33 DEB          
1 33866U 97051AK  24319.25296373  .00005555  00000+0  23650-2 0  9991
2 33866  86.2997 259.0007 0113444 343.3516 144.2887 14.21633864812119
IRIDIUM 33 DEB          
1 33867U 97051AL  24319.10276435  .00024322  00000+0  25467-2 0  9994
2 33867  86.4079 176.1589 0019827  16.5903 343.5968 14.89341412835776
IRIDIUM 33 DEB          
1 33870U 97051AP  24319.28414258  .00005056  00000+0  15117-2 0  9998
2 33870  86.3798 226.3586 0024298  50.5586  75.6489 14.42606627824573
IRIDIUM 33 DEB          
1 33874U 97051AT  24319.61756937  .00053536  00000+0  79351-2 0  9998
2 33874  86.2817 186.3869 0018592 217.4037 171.3827 14.74714564821686
IRIDIUM 33 DEB          
1 33881U 97051BA  24319.42192466  .00014780  00000+0  42508-2 0  9998
2 33881  86.3862 276.0988 0065939  45.1049  79.5140 14.43436917817940
IRIDIUM 33 DEB          
1 33884U 97051BD  24319.04146010  .00011285  00000+0  20937-2 0  9992
2 33884  86.3715 186.1514 0010660 242.3214 238.5986 14.65125929830551
IRIDIUM 33 DEB          
1 33886U 97051BF  24319.39391463  .00001641  00000+0  56550-3 0  9992
2 33886  86.3863 232.5612 0016385  91.1971  40.5323 14.35308574824085
IRIDIUM 33 DEB          
1 33887U 97051BG  24319.58874419  .00001071  00000+0  35741-3 0  9997
2 33887  86.3080 172.6740 0008458  87.0885 331.3524 14.36612949825195
IRIDIUM 33 DEB          
1 33953U 97051BN  24319.25457354  .00008042  00000+0  20603-2 0  9995
2 33953  86.3923 223.6743 0020239 345.6373 144.7290 14.50137594825900
IRIDIUM 33 DEB          
1 33959U 97051BU  24319.20896041  .00159977  00000+0  15239-1 0  9998
2 33959  86.3583 227.6537 0042530 103.9461 256.6502 14.91888380822350
IRIDIUM 33 DEB          
1 33960U 97051BV  24319.50352921  .00027196  00000+0  46951-2 0  9990
2 33960  86.2637 112.2621 0004170 359.6838  36.2540 14.68312466830624
IRIDIUM 33 DEB          
1 33965U 97051CA  24319.62392724  .00151346  00000+0  79100-2 0  9990
2 33965  86.3440 162.7779 0009420   9.1432 350.9978 15.15161448832703
IRIDIUM 33 DEB          
1 33966U 97051CB  24319.25932458  .00003922  00000+0  10741-2 0  9996
2 33966  86.3981 214.4364 0010252  77.4378  44.7881 14.46945804827468
IRIDIUM 33 DEB          
1 34071U 97051CE  24319.14742171  .00003911  00000+0  10823-2 0  9992
2 34071  86.3512 188.4524 0008106 358.0590   2.0579 14.46461806826389
IRIDIUM 33 DEB          
1 34077U 97051CL  24319.19989505  .00013033  00000+0  29789-2 0  9994
2 34077  86.3934 223.4772 0009867 297.6676 215.7101 14.55602623825888
IRIDIUM 33 DEB          
1 34079U 97051CN  24319.06432602  .00015966  00000+0  26937-2 0  9992
2 34079  86.3857 185.7417 0005640 279.8256 200.7024 14.69370802831668
IRIDIUM 33 DEB          
1 34086U 97051CV  24319.16029772  .00105042  00000+0  90641-2 0  9999
2 34086  86.3706 207.4596 0006064   0.1187 151.4066 14.96736179 34361
IRIDIUM 33 DEB          
1 34088U 97051CX  24319.20608248  .00020351  00000+0  34055-2 0  9993
2 34088  86.3975 208.1565 0007378 127.5139 355.0973 14.69709184829205
IRIDIUM 33 DEB          
1 34091U 97051DA  24319.26008250  .00030570  00000+0  65137-2 0  9999
2 34091  86.3586 242.9033 0044883 227.2421 132.5008 14.58167389820893
IRIDIUM 33 DEB          
1 34097U 97051DG  24319.58915657  .00006017  00000+0  22295-2 0  9995
2 34097  86.2032 174.3119 0085810 196.6981 163.1385 14.30113672814901
IRIDIUM 33 DEB          
1 34102U 97051DM  24319.43239017  .00167068  00000+0  17153-1 0  9995
2 34102  86.3474 276.7965 0056596  72.0733  51.3286 14.88346043816921
IRIDIUM 33 DEB          
1 34106U 97051DR  24319.57106000  .00059188  00000+0  55215-2 0  9994
2 34106  86.3378 156.4047 0004104 192.3392 220.1034 14.93926991832879
IRIDIUM 33 DEB          
1 34107U 97051DS  24319.00332984  .00127941  00000+0  84686-2 0  9992
2 34107  86.3789 163.7899 0003185 137.3797 351.4836 15.06724887833793
IRIDIUM 33 DEB          
1 34145U 97051DY  24319.50405873  .00005793  00000+0  18779-2 0  9997
2 34145  86.2133 147.0766 0056812 307.8088  51.7973 14.37905991819771
IRIDIUM 33 DEB          
1 34146U 97051DZ  24319.62581747  .00005760  00000+0  16356-2 0  9999
2 34146  86.2854 162.8877 0032049  91.3171 330.5311 14.44989910824214
IRIDIUM 33 DEB          
1 34159U 97051EN  24319.24291047  .00002439  00000+0  81412-3 0  9998
2 34159  86.3563 215.6961 0029925 133.4850 226.8843 14.36900282823052
IRIDIUM 33 DEB          
1 34350U 97051ES  24319.59384677  .00002526  00000+0  73587-3 0  9992
2 34350  86.3314 173.1368 0022270   7.7314  21.2702 14.43725553826173
IRIDIUM 33 DEB          
1 34366U 97051FJ  24319.26451635  .00008585  00000+0  22726-2 0  9991
2 34366  86.3749 219.5893 0024932  25.0215  95.8949 14.48518561824745
IRIDIUM 33 DEB          
1 34375U 97051FT  24319.06319976  .00002228  00000+0  10515-2 0  9991
2 34375  86.4316 341.3539 0101940 297.7833 123.5693 14.16750282811357
IRIDIUM 33 DEB          
1 34376U 97051FU  24319.60946411  .00009968  00000+0  23998-2 0  9999
2 34376  86.3068 181.8329 0032947  64.3436 296.1167 14.52865708822784
IRIDIUM 33 DEB          
1 34486U 97051GB  24319.61366906  .00020041  00000+0  29611-2 0  9990
2 34486  86.4062 190.2706 0016687  66.9868 359.2677 14.75050548831515
IRIDIUM 33 DEB          
1 34487U 97051GC  24319.61517523  .00001555  00000+0  46319-3 0  9998
2 34487  86.3478 181.4519 0031384 354.1678  34.8646 14.42272025825809
IRIDIUM 33 DEB          
1 34488U 97051GD  24319.45180506  .00028706  00000+0  34322-2 0  9995
2 34488  86.3335 132.4336 0017639 352.0326   8.0614 14.83933402833343
IRIDIUM 33 DEB          
1 34492U 97051GH  24319.49514448  .00010580  00000+0  44781-2 0  9991
2 34492  86.4877 131.6654 0231799  52.7134   1.7732 14.11961093794839
IRIDIUM 33 DEB          
1 34497U 97051GN  24318.00009463  .00003127  00000+0  12734-2 0  9990
2 34497  86.2831 220.6158 0082936 166.6998 205.4265 14.25334580812565
IRIDIUM 33 DEB          
1 34503U 97051GU  24319.34162135  .00038485  00000+0  26334-2 0  9998
2 34503  86.2976  95.8956 0005943 158.5253 201.6233 15.05923459835711
IRIDIUM 33 DEB          
1 34508U 97051GZ  24319.39563785  .00008756  00000+0  30403-2 0  9994
2 34508  86.3696 268.7018 0071515  23.0062 337.4308 14.34004095816625
IRIDIUM 33 DEB          
1 34521U 97051HN  24319.11821568  .00009729  00000+0  21810-2 0  9998
2 34521  86.3857 202.8465 0004253 122.7827 237.3791 14.56527505827283
IRIDIUM 33 DEB          
1 34525U 97051HS  24319.22760226  .00002757  00000+0  84823-3 0  9995
2 34525  86.3781 214.4798 0003766 342.0399 144.5908 14.41226886824165
IRIDIUM 33 DEB          
1 34529U 97051HW  24319.61557451  .00001046  00000+0  32707-3 0  9990
2 34529  86.3697 202.8126 0007536  63.5790 296.6182 14.39857997824837
IRIDIUM 33 DEB          
1 34538U 97051JF  24319.58937517  .00004847  00000+0  15451-2 0  9999
2 34538  86.2795 177.2475 0036446 173.8433 215.4877 14.39246992820943
IRIDIUM 33 DEB          
1 34540U 97051JH  24319.46924154  .00011747  00000+0  21491-2 0  9990
2 34540  86.3146 125.9359 0022165  91.6716 296.9899 14.65622602832410
IRIDIUM 33 DEB          
1 34648U 97051JZ  24319.35995337  .00012357  00000+0  65459-2 0  9998
2 34648  86.4055  79.5000 0201312  88.8040 273.6193 14.03739332794267
IRIDIUM 33 DEB          
1 34651U 97051KC  24319.38889346  .00016324  00000+0  69360-2 0  9990
2 34651  86.2836 307.0258 0164842  23.0967 337.7519 14.18131794803039
IRIDIUM 33 DEB          
1 34652U 97051KD  24319.29201595  .00006713  00000+0  14842-2 0  9991
2 34652  86.3340 154.4571 0030458 187.8530 299.7873 14.56848318827443
IRIDIUM 33 DEB          
1 34690U 97051KM  24317.94693495  .00005704  00000+0  14200-2 0  9994
2 34690  86.3866 208.0497 0008302 266.2266 221.7674 14.51564427823814
IRIDIUM 33 DEB          
1 34693U 97051KQ  24319.51376642  .00030463  00000+0  37153-2 0  9996
2 34693  86.3243 130.7204 0018029   2.7694  56.2536 14.83097774830141
IRIDIUM 33 DEB          
1 34696U 97051KT  24319.14652172  .00025842  00000+0  73383-2 0  9993
2 34696  86.2006 206.9029 0104715  46.9370 104.6684 14.42089569809551
